KENT RIDGE 1            
1 41167U 15077B   17345.63829861  .00000843  00000-0  11566-4 0  9990
2 41167  14.9800 330.0170 0011263 283.2708  35.1622 15.08820377109774
